[
    {
        "CCSDS_OMM_VERS": "3.0",
        "COMMENT": "GENERATED VIA SPACE-TRACK.ORG API",
        "CREATION_DATE": "2025-03-02T18:08:23",
        "ORIGINATOR": "18 SPCS",
        "OBJECT_NAME": "COSMOS 2485 (GLONASS)",
        "OBJECT_ID": "2013-019A",
        "CENTER_NAME": "EARTH",
        "REF_FRAME": "TEME",
        "TIME_SYSTEM": "UTC",
        "MEAN_ELEMENT_THEORY": "SGP4",
        "EPOCH": "2025-03-02T07:21:44.614368",
        "MEAN_MOTION": "2.13104378",
        "ECCENTRICITY": "0.00251470",
        "INCLINATION": "65.1627",
        "RA_OF_ASC_NODE": "89.4711",
        "ARG_OF_PERICENTER": "236.8225",
        "MEAN_ANOMALY": "123.0018",
        "EPHEMERIS_TYPE": "0",
        "CLASSIFICATION_TYPE": "U",
        "NORAD_CAT_ID": "39155",
        "ELEMENT_SET_NO": "999",
        "REV_AT_EPOCH": "9222",
        "BSTAR": "0.00000000000000",
        "MEAN_MOTION_DOT": "0.00000038",
        "MEAN_MOTION_DDOT": "0.0000000000000",
        "SEMIMAJOR_AXIS": "25507.835",
        "PERIOD": "675.725",
        "APOAPSIS": "19193.844",
        "PERIAPSIS": "19065.555",
        "OBJECT_TYPE": "PAYLOAD",
        "RCS_SIZE": "LARGE",
        "COUNTRY_CODE": "CIS",
        "LAUNCH_DATE": "2013-04-26",
        "SITE": "PKMTR",
        "DECAY_DATE": null,
        "FILE": "4657142",
        "GP_ID": "282084757",
        "TLE_LINE0": "0 COSMOS 2485 (GLONASS)",
        "TLE_LINE1": "1 39155U 13019A   25061.30676637  .00000038  00000-0  00000-0 0  9990",
        "TLE_LINE2": "2 39155  65.1627  89.4711 0025147 236.8225 123.0018  2.13104378 92228"
    }
]